ESTCUBE 1               
1 39161U 13021C   21360.17356012  .00000721  00000-0  12088-3 0  9996
2 39161  97.9255  76.8329 0008185 255.5219 104.5086 14.72616292463967
FENGYUN 3C              
1 39260U 13052A   21360.35051123  .00000037  00000-0  39822-4 0  9991
2 39260  98.4760  32.0469 0012068  57.1356 303.0992 14.15891046427428
CASSIOPE                
1 39265U 13055A   21360.56587728  .00008694  00000-0  23566-3 0  9991
2 39265  80.9664  90.0757 0639869 109.0277 258.1322 14.34655797427518
ZACUBE-1 (TSHEPISOSAT)  
1 39417U 13066B   21360.52123711  .00001231  00000-0  15836-3 0  9997
2 39417  97.6154 335.1462 0056952 251.1922 108.3109 14.81743002437513
CINEMA-3 (KHUSAT-2)     
1 39426U 13066L   21360.38514430  .00000719  00000-0  11845-3 0  9999
2 39426  97.7809 303.0801 0105280  70.4863 290.7679 14.69808640433843
TRITON-1                
1 39427U 13066M   21360.42009254  .00000883  00000-0  14605-3 0  9997
2 39427  97.7980 298.9829 0114329  97.4819 263.9393 14.68432380433387
DELFI-N3XT              
1 39428U 13066N   21360.41054903  .00001341  00000-0  21600-3 0  9991
2 39428  97.8010 297.4827 0120366 110.5081 250.9092 14.68316742433139
GOMX-1                  
1 39430U 13066Q   21360.53750292  .00000883  00000-0  16753-3 0  9994
2 39430  97.8157 272.5807 0149021 229.5874 129.2243 14.59789784431062
BRITE-PL1 (LEM)         
1 39431U 13066R   21360.59939582  .00000242  00000-0  60942-4 0  9991
2 39431  97.7217 224.4311 0202897  44.3574 317.3675 14.47204066427365
ICUBE-1                 
1 39432U 13066S   21360.56239363  .00001482  00000-0  15305-3 0  9998
2 39432  97.4692   8.4291 0032969 120.4613 239.9870 14.91171533438930
HUMSAT-D                
1 39433U 13066T   21360.59008441  .00002352  00000-0  22769-3 0  9992
2 39433  97.4586  15.7857 0031734  98.4038 262.0782 14.93280784439410
VELOX-PII               
1 39438U 13066Y   21360.46217618  .00001229  00000-0  16925-3 0  9990
2 39438  97.6691 325.9774 0068859 300.6752  58.7685 14.78406646435448
FIRST-MOVE              
1 39439U 13066Z   21360.47011982  .00002353  00000-0  28597-3 0  9995
2 39439  97.6192 337.0000 0062728 248.0942 111.3595 14.83040085436406
CUBEBUG-2 (LO-74)       
1 39440U 13066AA  21360.46406577  .00001539  00000-0  21742-3 0  9994
2 39440  97.7036 320.6206 0079011 333.6523  26.0678 14.76454890434756
NEE-02 KRYSAOR          
1 39441U 13066AB  21360.39559219  .00001110  00000-0  16274-3 0  9998
2 39441  97.7141 317.8206 0080985 346.2195  13.6804 14.75335130434510
FUNCUBE-1 (AO-73)       
1 39444U 13066AE  21360.52040477  .00001446  00000-0  18089-3 0  9995
2 39444  97.6046 337.5359 0056024 240.2089 119.3547 14.82695574435895
HINCUBE                 
1 39445U 13066AF  21360.48300270  .00001384  00000-0  17415-3 0  9994
2 39445  97.6061 337.3363 0056049 242.3968 117.1548 14.82519062435830
UWE-3                   
1 39446U 13066AG  21360.44529400  .00001388  00000-0  18775-3 0  9993
2 39446  97.6627 327.3193 0068077 293.9953  65.4143 14.78999839434888
AIST-1 (RS-41)          
1 39492U 13078C   21360.46259495  .00000654  00000-0  68239-4 0  9999
2 39492  82.4194  42.1061 0018955 323.8738  36.1187 14.88147514434058
SPROUT                  
1 39770U 14029E   21360.50702482  .00004299  00000-0  46186-3 0  9994
2 39770  97.9311 111.8508 0007500 300.2762  59.7703 14.89072891411910
UNISAT-6                
1 40012U 14033C   21360.49382645  .00000786  00000-0  12245-3 0  9999
2 40012  97.6617 192.7160 0057952   0.4085 359.7162 14.74480203404493
BUGSAT-1 (TITA)         
1 40014U 14033E   21360.60451035  .00002004  00000-0  18279-3 0  9992
2 40014  98.1323 347.1778 0029724 248.4250 111.3799 14.96016485410294
DUCHIFAT-1              
1 40021U 14033M   21360.47207635  .00002629  00000-0  26662-3 0  9998
2 40021  97.9936 302.9294 0011204 249.8566 110.1447 14.91746648408908
NANOSATC-BR1            
1 40024U 14033Q   21360.48996682  .00001795  00000-0  18834-3 0  9994
2 40024  97.9689 297.1660 0010662 256.7292 103.2737 14.90778142408209
QB50P1                  
1 40025U 14033R   21360.40579400  .00001555  00000-0  16828-3 0  9997
2 40025  97.9476 291.7298 0010860 267.4825  92.5149 14.89723588407996
DTUSAT-2                
1 40030U 14033W   21360.33343212  .00001476  00000-0  16189-3 0  9997
2 40030  97.9276 287.6321 0010327 263.9446  96.0594 14.89249182407872
QB50P2                  
1 40032U 14033Y   21360.57053035  .00001496  00000-0  16410-3 0  9995
2 40032  97.9281 287.8795 0010302 264.0865  95.9178 14.89212878407886
POLYITAN-1              
1 40042U 14033AJ  21360.54661233  .00001882  00000-0  20292-3 0  9990
2 40042  97.9571 292.8593 0013104 257.5454 102.4297 14.89590060407906
TIGRISAT                
1 40043U 14033AK  21360.49092873  .00000629  00000-0  98956-4 0  9994
2 40043  97.6573 194.0742 0059595 358.0408   2.0559 14.74667617404130
AISAT                   
1 40054U 14034B   21360.39834743  .00002024  00000-0  28277-3 0  9995
2 40054  98.3407 160.2134 0013352 145.7934 214.4138 14.78766547403892
CANX-4                  
1 40055U 14034C   21360.38634383  .00000578  00000-0  93620-4 0  9990
2 40055  98.3310 146.9835 0014116 183.9917 176.1181 14.75157499403203
CANX-5                  
1 40056U 14034D   21360.39212209  .00000578  00000-0  93667-4 0  9992
2 40056  98.3310 146.9726 0014135 184.2496 175.8594 14.75150654394018
VELOX-I                 
1 40057U 14034E   21360.42483396  .00001647  00000-0  23338-3 0  9999
2 40057  98.3463 161.3500 0011283 158.3415 201.8303 14.78441616403904
METEOR-M 2              
1 40069U 14037A   21360.35262890 -.00000017  00000-0  11487-4 0  9995
2 40069  98.4447  20.9431 0006852 102.5439 257.6503 14.20693909387280
DX1                     
1 40071U 14037C   21360.46069304  .00000577  00000-0  80815-4 0  9996
2 40071  98.4295 215.3578 0008942 145.0420 215.1374 14.81607156403729
UKUBE-1                 
1 40074U 14037F   21360.52635159  .00001365  00000-0  16794-3 0  9993
2 40074  98.4043 226.9686 0005086 117.6420 242.5309 14.84792187404402
FIREBIRD 3              
1 40377U 15003B   21360.48375743  .00012499  00000-0  42852-3 0  9992
2 40377  99.1131 182.5187 0111256 248.4956 110.4386 15.24581025382024
FIREBIRD 4              
1 40378U 15003C   21360.45285646  .00013477  00000-0  46062-3 0  9996
2 40378  99.1136 182.6564 0111290 248.3360 110.5991 15.24646585382022
GRIFEX                  
1 40379U 15003D   21360.45577420  .00007648  00000-0  29734-3 0  9991
2 40379  99.1145 170.2612 0123358 285.7126  73.0525 15.19590909381323
CP10 (EXOCUBE)          
1 40380U 15003E   21360.42976106  .00005187  00000-0  21554-3 0  9992
2 40380  99.1176 163.8423 0129679 307.2711  51.6748 15.17033883380902
DEORBITSAIL             
1 40719U 15032E   21360.60445486  .00001574  00000-0  22639-3 0  9993
2 40719  97.8037 239.5497 0015408 201.2197 158.8376 14.77669988348352
NUDT-PHONESAT           
1 40900U 15049B   21360.54045185  .00014415  00000-0  51697-3 0  9992
2 40900  97.4126  13.5786 0011159 171.7807 340.0654 15.28759355348144
XW-2A                   
1 40903U 15049E   21360.51397882  .00012268  00000-0  23985-3 0  9999
2 40903  97.2104  54.3563 0012697  40.2056  66.9146 15.47495710352475
XW-2C                   
1 40906U 15049H   21360.52048170  .00003852  00000-0  19593-3 0  9995
2 40906  97.4909   0.5976 0012902 237.7699 280.6208 15.17370743346684
XW-2D                   
1 40907U 15049J   21360.52829012  .00004617  00000-0  23150-3 0  9992
2 40907  97.4896   0.4767 0012196 233.6682 244.5176 15.17778393346720
LILACSAT-2              
1 40908U 15049K   21360.54120259  .00002485  00000-0  13716-3 0  9990
2 40908  97.5117 358.0428 0013935 254.6265 221.5994 15.14810526346305
XW-2E                   
1 40909U 15049L   21360.54747689  .00006597  00000-0  30366-3 0  9991
2 40909  97.4669   4.7458 0011654 214.0725 265.9886 15.20591684347112
XW-2F                   
1 40910U 15049M   21360.54798976  .00006540  00000-0  30541-3 0  9991
2 40910  97.4747   3.8453 0012730 214.8638 263.3672 15.20086141346899
XW-2B                   
1 40911U 15049N   21360.54168174  .00004516  00000-0  22710-3 0  9993
2 40911  97.4895   1.1393 0012092 234.2650 241.9295 15.17686691346614
KAITUO 1B               
1 40912U 15049P   21360.54660279  .00007280  00000-0  31399-3 0  9991
2 40912  97.4423   8.2217 0013590 182.5417 296.4965 15.22763665347416
TIANWANG 1A (TW-1A)     
1 40928U 15051D   21360.55330462  .00019156  00000-0  35095-3 0  9992
2 40928  97.0616  21.0505 0007255 318.9500 192.0895 15.49324818351392
LAPAN-A2                
1 40931U 15052B   21360.35522921  .00000825  00000-0  25665-4 0  9994
2 40931   6.0029 323.8007 0013297 240.8321 119.0582 14.76713306337716
LQSAT                   
1 40958U 15057A   21360.55596726  .00000267  00000-0  48655-4 0  9998
2 40958  97.7774  49.2773 0018543 153.7433 206.4723 14.73231258334525
ATHENOXAT 1             
1 41168U 15077C   21360.03313392  .00009901  00000-0  44963-3 0  9994
2 41168  14.9871 291.3463 0010518 328.7575 122.4369 15.17019555333906
GALASSIA                
1 41170U 15077E   21360.04680596  .00007995  00000-0  35570-3 0  9996
2 41170  14.9891 281.6299 0011612 358.1115   1.9162 15.17077786333826
VELOX-II                
1 41171U 15077F   21360.22929834  .00005673  00000-0  27102-3 0  9991
2 41171  14.9929 345.4827 0008447 216.2908 143.6840 15.13387423333310
CHUBUSAT-2              
1 41338U 16012B   21360.56842792  .00001544  00000-0  11204-3 0  9999
2 41338  31.0041  44.0959 0013566 238.1489 121.7826 15.00753963321481
CHUBUSAT-3              
1 41339U 16012C   21360.50703235  .00001539  00000-0  11132-3 0  9996
2 41339  31.0118  41.5310 0013506 245.4151 114.5091 15.00883618321475
HORYU-4                 
1 41340U 16012D   21360.47090461  .00002530  00000-0  18045-3 0  9996
2 41340  31.0063  22.8344 0013637 280.2994  79.6105 15.02266299321684
